FLOCK 4G-14             
1 62667U 25009BL  26068.75869712  .00011310  00000+0  42676-3 0  9993
2 62667  97.4064 151.1836 0003006 318.3639  41.7371 15.27197201 63711
STARLINK-34158          
1 63996U 25101C   26068.14442162  .00031986  00000+0  11660-2 0  9990
2 63996  43.0035   0.9277 0001360 284.6533  75.4168 15.27603972 46975
